H1 CPF  1  DLR 2021 08 31 10  7432 technosat            
H2  1704205 6203    42829 2021 08 31 00 00 00 2021 09 07 00 00 00    60 1 1  0 0 0
H9
10 0 59461  21600.000000  0      -2979984.777      -3313910.923       5359910.915
10 0 59461  21660.000000  0      -3285576.519      -3484773.567       5064768.989
10 0 59461  21720.000000  0      -3578766.990      -3638357.481       4748167.602
10 0 59461  21780.000000  0      -3858162.770      -3774124.555       4411439.402
10 0 59461  21840.000000  0      -4122423.244      -3891623.181       4056003.641
10 0 59461  21900.000000  0      -4370267.178      -3990489.853       3683360.325
10 0 59461  21960.000000  0      -4600479.084      -4070450.350       3295084.037
10 0 59461  22020.000000  0      -4811915.411      -4131320.545       2892817.391
10 0 59461  22080.000000  0      -5003510.450      -4173006.768       2478264.069
10 0 59461  22140.000000  0      -5174281.905      -4195505.705       2053181.505
10 0 59461  22200.000000  0      -5323336.068      -4198903.815       1619373.306
10 0 59461  22260.000000  0      -5449872.602      -4183376.301       1178681.456
10 0 59461  22320.000000  0      -5553188.947      -4149185.669        732978.301
10 0 59461  22380.000000  0      -5632684.218      -4096679.818        284158.341
10 0 59461  22440.000000  0      -5687862.650      -4026289.724       -165870.081
10 0 59461  22500.000000  0      -5718336.540      -3938526.713       -615193.198
10 0 59461  22560.000000  0      -5723828.642      -3833979.316      -1061900.319
10 0 59461  22620.000000  0      -5704173.974      -3713309.690      -1504092.309
10 0 59461  22680.000000  0      -5659321.019      -3577249.689      -1939889.944
10 0 59461  22740.000000  0      -5589332.408      -3426596.631      -2367442.103
10 0 59461  22800.000000  0      -5494385.079      -3262208.811      -2784933.858
10 0 59461  22860.000000  0      -5374769.815      -3085000.685      -3190594.380
10 0 59461  22920.000000  0      -5230890.254      -2895937.832      -3582704.552
10 0 59461  22980.000000  0      -5063261.387      -2696031.719      -3959604.340
10 0 59461  23040.000000  0      -4872507.486      -2486334.282      -4319699.876
10 0 59461  23100.000000  0      -4659359.513      -2267932.383      -4661470.174
10 0 59461  23160.000000  0      -4424652.042      -2041942.166      -4983473.492
10 0 59461  23220.000000  0      -4169319.698      -1809503.325      -5284353.319
10 0 59461  23280.000000  0      -3894393.147      -1571773.301      -5562843.927
10 0 59461  23340.000000  0      -3600994.650      -1329921.500      -5817775.465
10 0 59461  23400.000000  0      -3290333.246      -1085123.529      -6048078.633
10 0 59461  23460.000000  0      -2963699.551       -838555.483      -6252788.915
10 0 59461  23520.000000  0      -2622460.205       -591388.322      -6431050.338
10 0 59461  23580.000000  0      -2268051.983       -344782.357      -6582118.785
10 0 59461  23640.000000  0      -1901975.582        -99881.861      -6705364.774
10 0 59461  23700.000000  0      -1525789.246        142190.129      -6800275.737
10 0 59461  23760.000000  0      -1141102.185        380336.838      -6866457.947
10 0 59461  23820.000000  0       -749567.721        613492.669      -6903638.027
10 0 59461  23880.000000  0       -352876.223        840627.933      -6911663.893
10 0 59461  23940.000000  0         47252.073       1060753.287      -6890505.206
10 0 59461  24000.000000  0        449074.341       1272923.887      -6840253.521
10 0 59461  24060.000000  0        850832.699       1476243.411      -6761122.074
10 0 59461  24120.000000  0       1250761.941       1669867.879      -6653444.871
10 0 59461  24180.000000  0       1647097.149       1853009.104      -6517675.257
10 0 59461  24240.000000  0       2038081.377       2024937.881      -6354384.220
10 0 59461  24300.000000  0       2421973.496       2184986.909      -6164258.141
10 0 59461  24360.000000  0       2797055.884       2332553.361      -5948095.982
10 0 59461  24420.000000  0       3161642.010       2467101.138      -5706806.147
10 0 59461  24480.000000  0       3514084.026       2588162.832      -5441402.956
10 0 59461  24540.000000  0       3852780.316       2695341.370      -5153002.664
10 0 59461  24600.000000  0       4176182.902       2788311.333      -4842818.955
10 0 59461  24660.000000  0       4482804.658       2866819.910      -4512158.046
10 0 59461  24720.000000  0       4771226.333       2930687.471      -4162413.327
10 0 59461  24780.000000  0       5040103.249       2979807.800      -3795059.594
10 0 59461  24840.000000  0       5288171.719       3014147.962      -3411646.969
10 0 59461  24900.000000  0       5514255.162       3033747.829      -3013794.515
10 0 59461  24960.000000  0       5717269.997       3038719.330      -2603183.479
10 0 59461  25020.000000  0       5896231.075       3029245.223      -2181550.063
10 0 59461  25080.000000  0       6050256.571       3005577.487      -1750678.009
10 0 59461  25140.000000  0       6178572.476       2968035.413      -1312390.993
10 0 59461  25200.000000  0       6280516.609       2917003.376       -868544.805
10 0 59461  25260.000000  0       6355542.158       2852928.280       -421019.306
10 0 59461  25320.000000  0       6403220.599       2776316.618         28289.782
10 0 59461  25380.000000  0       6423244.002       2687731.213        477479.089
10 0 59461  25440.000000  0       6415426.804       2587787.745        924645.755
10 0 59461  25500.000000  0       6379707.101       2477151.124       1367895.648
10 0 59461  25560.000000  0       6316147.313       2356531.588       1805351.630
10 0 59461  25620.000000  0       6224934.215       2226680.521       2235161.726
10 0 59461  25680.000000  0       6106378.338       2088386.077       2655507.141
10 0 59461  25740.000000  0       5960912.770       1942468.705       3064610.042
10 0 59461  25800.000000  0       5789091.446       1789776.580       3460741.195
10 0 59461  25860.000000  0       5591586.786       1631180.854       3842227.356
10 0 59461  25920.000000  0       5369186.772       1467570.851       4207458.324
10 0 59461  25980.000000  0       5122791.504       1299849.278       4554893.602
10 0 59461  26040.000000  0       4853409.388       1128927.463       4883068.758
10 0 59461  26100.000000  0       4562152.822        955720.513       5190601.568
10 0 59461  26160.000000  0       4250233.309        781142.522       5476197.713
10 0 59461  26220.000000  0       3918956.153        606101.875       5738656.063
10 0 59461  26280.000000  0       3569714.715        431496.633       5976873.466
10 0 59461  26340.000000  0       3203984.409        258210.094       6189849.032
10 0 59461  26400.000000  0       2823316.438         87106.480       6376688.117
10 0 59461  26460.000000  0       2429331.164        -80973.256       6536605.885
10 0 59461  26520.000000  0       2023711.188       -245215.449       6668930.402
10 0 59461  26580.000000  0       1608194.207       -404837.568       6773105.337
10 0 59461  26640.000000  0       1184565.525       -559091.895       6848692.207
10 0 59461  26700.000000  0        754650.384       -707268.971       6895372.008
10 0 59461  26760.000000  0        320306.240       -848700.769       6912946.461
10 0 59461  26820.000000  0       -116585.186       -982763.687       6901338.842
10 0 59461  26880.000000  0       -554125.934      -1108881.281       6860594.275
10 0 59461  26940.000000  0       -990409.940      -1226526.747       6790879.620
10 0 59461  27000.000000  0      -1423531.226      -1335225.114       6692482.834
10 0 59461  27060.000000  0      -1851592.078      -1434555.141       6565811.904
10 0 59461  27120.000000  0      -2272711.228      -1524150.928       6411393.343
10 0 59461  27180.000000  0      -2685032.009      -1603703.253       6229870.327
10 0 59461  27240.000000  0      -3086730.603      -1672960.663       6022000.415
10 0 59461  27300.000000  0      -3476024.273      -1731730.277       5788652.662
10 0 59461  27360.000000  0      -3851179.382      -1779878.298       5530804.193
10 0 59461  27420.000000  0      -4210519.239      -1817330.214       5249536.384
10 0 59461  27480.000000  0      -4552431.821      -1844070.672       4946030.591
10 0 59461  27540.000000  0      -4875377.245      -1860143.058       4621563.372
10 0 59461  27600.000000  0      -5177894.935      -1865648.738       4277501.281
10 0 59461  27660.000000  0      -5458610.482      -1860745.991       3915295.281
10 0 59461  27720.000000  0      -5716242.172      -1845648.638       3536474.773
10 0 59461  27780.000000  0      -5949607.143      -1820624.402       3142641.255
10 0 59461  27840.000000  0      -6157627.162      -1785992.991       2735461.662
10 0 59461  27900.000000  0      -6339334.038      -1742123.925       2316661.341
10 0 59461  27960.000000  0      -6493874.557      -1689434.060       1888016.586
10 0 59461  28020.000000  0      -6620514.745      -1628384.839       1451346.874
10 0 59461  28080.000000  0      -6718643.559      -1559479.308       1008506.973
10 0 59461  28140.000000  0      -6787776.068      -1483258.903        561378.870
10 0 59461  28200.000000  0      -6827556.018      -1400300.016        111863.485
10 0 59461  28260.000000  0      -6837757.732      -1311210.390       -338127.702
10 0 59461  28320.000000  0      -6818287.376      -1216625.365       -786681.084
10 0 59461  28380.000000  0      -6769183.572      -1117203.976      -1231889.373
10 0 59461  28440.000000  0      -6690617.337      -1013624.920      -1671859.984
10 0 59461  28500.000000  0      -6582891.407       -906582.486      -2104723.311
10 0 59461  28560.000000  0      -6446438.950       -796782.430      -2528640.917
10 0 59461  28620.000000  0      -6281821.616       -684937.821      -2941813.608
10 0 59461  28680.000000  0      -6089726.920       -571764.828      -3342489.280
10 0 59461  28740.000000  0      -5870965.042       -457978.503      -3728970.462
99
